0 SL-19 DEB
1 24703U 94085Z   13279.26490091 -.00000001  00000-0  12419-2 0  5802
2 24703 064.7238 005.1420 0215143 229.3531 128.8575 11.20635539713003
0 SL-19 DEB
1 24703U 94085Z   13286.14186374  .00000063  00000-0  31370-2 0  5818
2 24703 064.7336 354.1445 0217638 229.4674 151.2605 11.20638169713776
0 SL-19 DEB
1 24703U 94085Z   13290.15201489  .00000063  00000-0  31370-2 0  5820
2 24703 064.7313 347.7318 0215311 227.4097 130.8679 11.20639994714223
0 SL-19 DEB
1 24703U 94085Z   13290.15909331  .00000025  00000-0  20228-2 0  5830
2 24703 064.7331 347.7195 0216988 228.5627 158.2238 11.20640570714225
0 SL-19 DEB
1 24703U 94085Z   13293.10364096  .00000078  00000-0  35848-2 0  5844
2 24703 064.7335 343.0091 0217315 228.3194 157.1744 11.20640843714554
